{
  "norad_id": 65298,
  "name": "FOURIER",
  "history": [
    {
      "epoch": "2026-04-11T18:17:00.733056Z",
      "apogee_km": 642.4377368647592,
      "perigee_km": 627.9313825506597,
      "latitude_deg": -2.0884807671033913e-05,
      "longitude_deg": 71.5877918865203,
      "height_km": 636.6743957042899,
      "semi_major_axis_km": 7013.321559707709,
      "eccentricity": 0.0010342,
      "inclination_deg": 97.9621,
      "raan_deg": 185.8175,
      "arg_perigee_deg": 282.2158,
      "mean_anomaly_deg": 77.7894,
      "mean_motion_rev_day": 14.78145326
    },
    {
      "epoch": "2026-04-13T04:24:03.047904Z",
      "apogee_km": 642.5647919193825,
      "perigee_km": 627.7123574383504,
      "latitude_deg": 7.048034865562523e-05,
      "longitude_deg": -80.16741491711122,
      "height_km": 637.3064141491018,
      "semi_major_axis_km": 7013.275574678866,
      "eccentricity": 0.00105888,
      "inclination_deg": 97.9624,
      "raan_deg": 187.2231,
      "arg_perigee_deg": 276.626,
      "mean_anomaly_deg": 83.3746,
      "mean_motion_rev_day": 14.78159864
    },
    {
      "epoch": "2026-04-14T19:23:29.793408Z",
      "apogee_km": 642.6987175493614,
      "perigee_km": 627.4688073416346,
      "latitude_deg": -4.759228135914224e-05,
      "longitude_deg": 54.976169886978866,
      "height_km": 638.0502276595611,
      "semi_major_axis_km": 7013.220762445498,
      "eccentricity": 0.0010858,
      "inclination_deg": 97.963,
      "raan_deg": 188.8294,
      "arg_perigee_deg": 270.4397,
      "mean_anomaly_deg": 89.5569,
      "mean_motion_rev_day": 14.78177193
    },
    {
      "epoch": "2026-04-15T16:30:41.085792Z",
      "apogee_km": 642.7905170331778,
      "perigee_km": 627.3110090026457,
      "latitude_deg": -6.44683850595658e-05,
      "longitude_deg": 98.18196279516877,
      "height_km": 638.4587824059711,
      "semi_major_axis_km": 7013.1877630179115,
      "eccentricity": 0.0011036,
      "inclination_deg": 97.9632,
      "raan_deg": 189.6996,
      "arg_perigee_deg": 267.1634,
      "mean_anomaly_deg": 92.8313,
      "mean_motion_rev_day": 14.78187626
    },
    {
      "epoch": "2026-04-16T12:00:23.380704Z",
      "apogee_km": 642.8679094448971,
      "perigee_km": 627.1668594090406,
      "latitude_deg": 2.823295668205821e-05,
      "longitude_deg": 165.75818810321783,
      "height_km": 638.8422679398606,
      "semi_major_axis_km": 7013.154384426968,
      "eccentricity": 0.0011194,
      "inclination_deg": 97.9632,
      "raan_deg": 190.5027,
      "arg_perigee_deg": 264.1527,
      "mean_anomaly_deg": 95.8408,
      "mean_motion_rev_day": 14.78198179
    },
    {
      "epoch": "2026-04-17T17:14:55.910688Z",
      "apogee_km": 643.003375593963,
      "perigee_km": 626.9174340764921,
      "latitude_deg": 5.470411083349577e-05,
      "longitude_deg": 87.12660315773475,
      "height_km": 639.4105514589556,
      "semi_major_axis_km": 7013.097404835227,
      "eccentricity": 0.00114685,
      "inclination_deg": 97.9631,
      "raan_deg": 191.7076,
      "arg_perigee_deg": 259.7955,
      "mean_anomaly_deg": 100.1963,
      "mean_motion_rev_day": 14.78216194
    },
    {
      "epoch": "2026-04-18T09:29:40.142400Z",
      "apogee_km": 643.0606558122208,
      "perigee_km": 626.8025394051283,
      "latitude_deg": 1.0137145126371208e-05,
      "longitude_deg": -156.55547302230423,
      "height_km": 639.7377647464718,
      "semi_major_axis_km": 7013.068597608674,
      "eccentricity": 0.00115913,
      "inclination_deg": 97.9631,
      "raan_deg": 192.377,
      "arg_perigee_deg": 257.3455,
      "mean_anomaly_deg": 102.646,
      "mean_motion_rev_day": 14.78225302
    },
    {
      "epoch": "2026-04-19T19:36:35.357760Z",
      "apogee_km": 643.1907583119009,
      "perigee_km": 626.5068650658941,
      "latitude_deg": -1.1089919245745631e-05,
      "longitude_deg": 51.7191977678659,
      "height_km": 640.4040288725253,
      "semi_major_axis_km": 7012.985811688897,
      "eccentricity": 0.0011895,
      "inclination_deg": 97.9628,
      "raan_deg": 193.7828,
      "arg_perigee_deg": 252.3471,
      "mean_anomaly_deg": 107.6441,
      "mean_motion_rev_day": 14.78251477
    },
    {
      "epoch": "2026-04-20T11:51:18.155232Z",
      "apogee_km": 643.2483806571299,
      "perigee_km": 626.389935348906,
      "latitude_deg": 6.874587755351165e-05,
      "longitude_deg": 168.04319499768647,
      "height_km": 640.7200511945866,
      "semi_major_axis_km": 7012.956158003018,
      "eccentricity": 0.00120195,
      "inclination_deg": 97.9627,
      "raan_deg": 194.4523,
      "arg_perigee_deg": 250.0556,
      "mean_anomaly_deg": 109.9361,
      "mean_motion_rev_day": 14.78260853
    }
  ]
}